[{"OBJECT_NAME":"STARLINK-1366","OBJECT_ID":"2020-025AQ","EPOCH":"2026-03-09T04:55:39.369792","MEAN_MOTION":15.75756697,"ECCENTRICITY":0.00085074,"INCLINATION":53.044,"RA_OF_ASC_NODE":40.9129,"ARG_OF_PERICENTER":56.1589,"MEAN_ANOMALY":304.0238,"EPHEMERIS_TYPE":0,"CLASSIFICATION_TYPE":"U","NORAD_CAT_ID":45569,"ELEMENT_SET_NO":999,"REV_AT_EPOCH":32596,"BSTAR":0.00070244107,"MEAN_MOTION_DOT":0.00111184,"MEAN_MOTION_DDOT":0},{"OBJECT_NAME":"STARLINK-36579","OBJECT_ID":"2026-014K","EPOCH":"2026-03-09T15:26:20.084928","MEAN_MOTION":15.75203205,"ECCENTRICITY":9.56e-5,"INCLINATION":97.2836,"RA_OF_ASC_NODE":313.5361,"ARG_OF_PERICENTER":55.8418,"MEAN_ANOMALY":304.2938,"EPHEMERIS_TYPE":0,"CLASSIFICATION_TYPE":"U","NORAD_CAT_ID":67541,"ELEMENT_SET_NO":999,"REV_AT_EPOCH":856,"BSTAR":0.0010924,"MEAN_MOTION_DOT":0.00166103,"MEAN_MOTION_DDOT":0}]
