STARLINK-1366           
1 45569U 20025AQ  26068.20531678  .00111184  00000+0  70244-3 0  9997
2 45569  53.0440  40.9129 0008507  56.1589 304.0238 15.75756697325969
STARLINK-36579          
1 67541U 26014K   26068.64328802  .00166103  00000+0  10924-2 0  9995
2 67541  97.2836 313.5361 0000956  55.8418 304.2938 15.75203205  8561
